#cP2014  4 18 18  0  0.00000000     192 ORBIT IGb08 HLM  IGS
## 1788 496800.00000000   900.00000000 56765 0.7500000000000
+   53   G01G02G03G04G05G07G08G09G10G11G12G13G14G15G16G17G18
+        G19G20G21G22G23G24G25G26G27G28G29G31G32R02R03R04R05
+        R06R07R08R09R10R11R12R13R14R15R16R17R18R19R20R21R22
+        R23R24  0  0  0  0  0  0  0  0  0  0  0  0  0  0  0
+          0  0  0  0  0  0  0  0  0  0  0  0  0  0  0  0  0
++         4  4  4  4  4  4  4  4  4  4  5  4  4  4  4  4  4
++         4  4  4  4  4  4  4  3  4  4  5  4  5  5  4  5  4
++         5  5  5  6  5  5  5  5  6  5  5  5  6  4  4  5  5
++         6  4  0  0  0  0  0  0  0  0  0  0  0  0  0  0  0
++         0  0  0  0  0  0  0  0  0  0  0  0  0  0  0  0  0
%c M  cc GPS ccc cccc cccc cccc cccc ccccc ccccc ccccc ccccc
%c cc cc ccc ccc cccc cccc cccc cccc ccccc ccccc ccccc ccccc
%f  1.2500000  1.025000000  0.00000000000  0.000000000000000
%f  0.0000000  0.000000000  0.00000000000  0.000000000000000
%i    0    0    0    0      0      0      0      0         0
%i    0    0    0    0      0      0      0      0         0
/* ULTRA ORBIT COMBINATION 17886_18 (56766.750) FROM:       
/* cou emu gfu gou siu usu coR emR gfR                      
/* REFERENCED TO emu CLOCK AND TO WEIGHTED MEAN POLE:       
/* PCV:IGS08_1788 OL/AL:FES2004  NONE     Y  ORB:CMB CLK:CMB
*  2014  4 19  9 30 0.00000000
PG01  -1306.406415  16398.767186 -20854.403187      9.169338  9 10  9           
PG02  20976.607381 -14683.752404   6274.578021    490.569077  8  5  5  92       
PG03  -7174.889334  22815.691026  10837.528743    353.747188 11  1  8 181       
PG04  25155.238401  -4836.003752  -7775.745593      6.730092  7  7  9 183       
PG05  11474.312847 -10657.739938  21425.118812   -378.017790  6  9  6 235       
PG07  14035.496084   9466.138228  20616.103354    336.979752  7  2  6 154       
PG08  22030.690365   3662.968211  14986.029524     13.003250     4  8 164       
PG09  23150.807144   -713.850966  12625.526008    321.296254  5  2  8 191       
PG10  22652.506485   5798.734332  12649.047357   -122.204284  7 11  5 145       
PG11  -6235.198374  21424.592518 -14741.995065   -481.946305  9  9 11           
PG12  -5691.007823 -19381.064082 -17427.249244    199.563923  6 11  9           
PG13   6124.781566  20441.168775  15574.771986      8.200590  6  6  5 155       
PG14 -14425.194287  -3843.666669 -21755.316686    180.332364  9  8  6           
PG15   4098.854780 -25933.901752   2718.988819   -174.749383  6  4  7           
PG16 -11621.886512   9191.581280  22022.334047   -222.506453  9  9  8  96       
PG17  14741.788530   2389.384039 -21704.494067    -86.292315  9  8  6           
PG18 -20241.258839 -17333.374077   2682.127332    314.161112  8  6 11           
PG19  -7889.659205  24817.119455   3661.560346   -451.923371 10     8           
PG20   7456.806448  19643.856925 -16475.612008    181.131631 10  9  6 194       
PG21 -17138.068171  -8196.427877  19368.346455   -356.214907  8  5  8 263       
PG22 -23389.615381  -8480.297662  -9316.346222    227.943223  3  4  4           
PG23    176.872716  25905.321458   4845.584326    -13.624422 11  6  8 108       
PG24   6736.341553 -17481.603749 -18812.807170    -26.959515 13  8 11           
PG25 -16653.050149 -19160.249587  -8108.739469     22.128455  7  6  9           
PG26  12422.440753 -19773.548477  11706.559324    104.228578  7  7  3 165       
PG27 -12450.966173  18165.409134  14806.611767    -19.354831  8  4  7           
PG28  22059.327180  13154.329369  -6427.553730    348.430839  5  7 11 203       
PG29  -6286.553547 -21549.583584  14278.144875    526.515978  9  6  8 248       
PG31 -25340.548009   7944.761178  -2873.714827    334.227582  7  9  9           
PG32  -5199.982674  15495.716605 -20960.651510   -446.363141 14 14  7           
PR02 -11290.075720 -21460.966550   7994.599784 999999.999999 14  9 14           
PR03 -17465.553656 -15822.558746  -9751.269283 999999.999999 12 10  7           
PR04 -13328.954150   -637.682180 -21727.352012 999999.999999  8 13 10           
PR05  -1546.376382  14703.959902 -20797.127876 999999.999999 10 12  9           
PR06  11623.669579  21482.835976  -7312.238834 999999.999999 12 13 11           
PR07  17475.173749  15697.643276   9954.495607 999999.999999  9  5 11           
PR08  13501.081524    935.714726  21677.566904 999999.999999 10  1  8           
PR09   5664.228512  10018.814299  22724.971085 999999.999999 13 10 10           
PR10  21142.970767   3921.546808  13752.816584 999999.999999 12 10 11           
PR11  24808.594668  -4462.196790  -3601.158706 999999.999999 13 13 16           
PR12  13694.585624 -10289.441225 -18997.510326 999999.999999 16 15 16           
PR13  -5920.923821  -9795.293252 -22818.592748 999999.999999 16 10  8           
PR14 -21385.438885  -3706.494109 -13369.754135 999999.999999  9 10 10           
PR15 -24815.424011   4553.290209   4131.142691 999999.999999 10 13  8           
PR16 -12884.908852  10386.300589  19340.571105 999999.999999 11  8 12           
PR17  -8790.385585  -6708.247809  23017.069832 999999.999999 13 10  9           
PR18 -14260.576285  11380.839778  17809.280912 999999.999999 12 12 13           
PR19 -10598.518458  23200.572190   -171.571497 999999.999999 11 10 10           
PR20   -668.634882  19561.653574 -16309.607290 999999.999999 12     8           
PR21   8980.047998   6279.700720 -23033.467446 999999.999999 11 13  7           
PR22  14202.164878 -11035.935470 -18145.490360 999999.999999  7 10 10           
PR23  11251.147386 -22788.668942  -2193.952564 999999.999999  4 11 15           
PR24   2194.187158 -21152.092972  14078.606043 999999.999999  6  1  6           
*  2014  4 19  9 45 0.00000000
PG01  -3456.597665  17291.882202 -19850.412151      9.170694  8 10  9           
PG02  21611.530517 -14616.515922   3509.308840    490.571024  8  5  5  97       
PG03  -7560.044839  21378.560423  13158.211982    353.751412 11  2  8 182       
PG04  24374.878217  -4165.407063 -10312.668552      6.729997  8  8  9 187       
PG05  13452.925640  -9238.573649  20942.912955   -378.015479  6  9  6 234       
PG07  11875.570390  10472.545222  21443.356134    336.983599  8  2  5 148       
PG08  20362.828267   4281.315691  17009.101916     13.001752     4  7 169       
PG09  21724.911835    121.700712  14868.255023    321.298320  4  3  7 193       
PG10  23609.528857   6778.412724  10290.046448   -122.206331  8 12  6 147       
PG11  -7580.577369  22224.224037 -12701.419935   -481.949291  9  8 11           
PG12  -3990.845459 -18208.304390 -19072.093446    199.566043  7 11  9           
PG13   5641.942247  22061.023366  13401.338167      8.197064  5  6  4 159       
PG14 -14009.085805  -6324.579044 -21461.271270    180.329322  9  8  6           
PG15   4415.043071 -25436.797999   5490.790190   -174.751240  7  4  7           
PG16 -13570.594668   7641.177742  21527.174331   -222.504759  8  9  8 113       
PG17  14415.637720   4894.559333 -21524.698206    -86.295480 10  8  6           
PG18 -19722.578388 -17362.019116   5398.544191    314.163080  7  7 11           
PG19  -8050.930948  24176.373277   6472.854655   -451.925596 10     8  85       
PG20   5685.917765  18796.300316 -18102.670172    181.135345 10  9  6           
PG21 -15237.415615  -9215.349035  20462.283299   -356.216654  9  6  8 260       
PG22 -23985.856221  -9282.495271  -6752.920936    227.945571  4  6  5           
PG23   -165.891673  26261.692674   2019.197388    -13.627049 11  6  8 160       
PG24   8660.046589 -18240.673299 -17228.562276    -26.959780 13  8 11           
PG25 -15676.456795 -18704.335140 -10710.549746     22.129516  7  7  9           
PG26  12342.319680 -18182.812193  14038.539549    104.218346  7  6  1 154       
PG27 -12478.334101  16348.307663  16775.148452    -19.353949  8  3  6           
PG28  22452.124096  13689.227283  -3604.784779    348.433157  5  7 11 206       
PG29  -5904.584586 -23004.527587  11983.923480    526.518501  9  6  9           
PG31 -24951.224185   7580.078049  -5691.085961    334.227731  6  9  8           
PG32  -7092.645356  13961.424742 -21428.099499   -446.356165 14 14  6           
PR02 -10676.917685 -20464.082016  10924.008171 999999.999999 14  8 14           
PR03 -18206.352434 -16541.190813  -6756.526233 999999.999999 11  9  7           
PR04 -14994.586581  -2642.183131 -20454.484438 999999.999999  7 13 12           
PR05  -3154.092118  12616.183136 -21954.539636 999999.999999 10 12  8           
PR06  11037.416692  20564.585298 -10270.947293 999999.999999 12 13 11           
PR07  18225.265858  16430.648603   6968.251575 999999.999999  9  7 11           
PR08  15150.865042   2922.862760  20369.772302 999999.999999  9  4  8           
PR09   2852.183622  10388.801204  23091.182907 999999.999999 13 10 10           
PR10  19282.740221   4011.820752  16227.415832 999999.999999 12  9 11           
PR11  25023.453992  -4686.045568   -372.086952 999999.999999 13 12 16           
PR12  15866.983125 -10705.496275 -16978.663443 999999.999999 16 15 16           
PR13  -3111.062278 -10185.302043 -23201.002619 999999.999999 16 11 10           
PR14 -19573.391154  -3795.443431 -15892.790176 999999.999999 10  9 10           
PR15 -25091.659961   4817.877079    913.255565 999999.999999 10 13  7           
PR16 -15128.499752  10796.577013  17390.506922 999999.999999 11  8 12           
PR17  -7756.527606  -9310.745396  22473.698855 999999.999999 13 10  9           
PR18 -13305.805781   9272.992384  19680.566406 999999.999999 11 12 12           
PR19 -10374.153106  23103.655674   3044.781143 999999.999999 11  9 10           
PR20  -1280.105028  21330.804996 -13870.361257 999999.999999 12  2  8           
PR21   7935.442201   8893.227147 -22558.555206 999999.999999 11 13  9           
PR22  13226.937392  -8896.925791 -19953.712082 999999.999999  7 10 10           
PR23  10926.367793 -22416.522402  -5369.700084 999999.999999    12 15           
PR24   2659.908177 -22662.467381  11396.078752 999999.999999  7  3  7           
EOF
